[{"OBJECT_NAME":"CUTE-1.7+APD II (CO-65)","OBJECT_ID":"2008-021C","EPOCH":"2024-10-09T04:35:57.762528","MEAN_MOTION":14.99207164,"ECCENTRICITY":0.0007901,"INCLINATION":97.7703,"RA_OF_ASC_NODE":247.8084,"ARG_OF_PERICENTER":321.3268,"MEAN_ANOMALY":38.7388,"EPHEMERIS_TYPE":0,"CLASSIFICATION_TYPE":"U","NORAD_CAT_ID":32785,"ELEMENT_SET_NO":999,"REV_AT_EPOCH":89261,"BSTAR":0.0012893,"MEAN_MOTION_DOT":0.00015682,"MEAN_MOTION_DDOT":0},{"OBJECT_NAME":"SEEDS II (CO-66)","OBJECT_ID":"2008-021J","EPOCH":"2024-10-08T21:58:13.972800","MEAN_MOTION":15.08073473,"ECCENTRICITY":0.0001795,"INCLINATION":97.7041,"RA_OF_ASC_NODE":253.8099,"ARG_OF_PERICENTER":312.6538,"MEAN_ANOMALY":47.4539,"EPHEMERIS_TYPE":0,"CLASSIFICATION_TYPE":"U","NORAD_CAT_ID":32791,"ELEMENT_SET_NO":999,"REV_AT_EPOCH":89371,"BSTAR":0.002091,"MEAN_MOTION_DOT":0.00032293,"MEAN_MOTION_DDOT":0},{"OBJECT_NAME":"YUBILEINY (RS-30)","OBJECT_ID":"2008-025A","EPOCH":"2024-10-09T12:21:13.652640","MEAN_MOTION":12.43150043,"ECCENTRICITY":0.0019311,"INCLINATION":82.5087,"RA_OF_ASC_NODE":18.3677,"ARG_OF_PERICENTER":212.601,"MEAN_ANOMALY":147.3879,"EPHEMERIS_TYPE":0,"CLASSIFICATION_TYPE":"U","NORAD_CAT_ID":32953,"ELEMENT_SET_NO":999,"REV_AT_EPOCH":74333,"BSTAR":0.00035098,"MEAN_MOTION_DOT":5.9e-7,"MEAN_MOTION_DDOT":0},{"OBJECT_NAME":"KKS-1 (KISEKI)","OBJECT_ID":"2009-002H","EPOCH":"2024-10-09T12:55:38.477856","MEAN_MOTION":14.79737753,"ECCENTRICITY":0.0009837,"INCLINATION":98.1254,"RA_OF_ASC_NODE":186.4638,"ARG_OF_PERICENTER":116.1748,"MEAN_ANOMALY":244.0476,"EPHEMERIS_TYPE":0,"CLASSIFICATION_TYPE":"U","NORAD_CAT_ID":33499,"ELEMENT_SET_NO":999,"REV_AT_EPOCH":84502,"BSTAR":0.00084301,"MEAN_MOTION_DOT":6.292e-5,"MEAN_MOTION_DDOT":0},{"OBJECT_NAME":"SWISSCUBE","OBJECT_ID":"2009-051B","EPOCH":"2024-10-09T14:13:37.993440","MEAN_MOTION":14.59852953,"ECCENTRICITY":0.0006677,"INCLINATION":98.4517,"RA_OF_ASC_NODE":169.1393,"ARG_OF_PERICENTER":337.2559,"MEAN_ANOMALY":22.8344,"EPHEMERIS_TYPE":0,"CLASSIFICATION_TYPE":"U","NORAD_CAT_ID":35932,"ELEMENT_SET_NO":999,"REV_AT_EPOCH":79924,"BSTAR":0.0010638,"MEAN_MOTION_DOT":5.043e-5,"MEAN_MOTION_DDOT":0},{"OBJECT_NAME":"BEESAT-1","OBJECT_ID":"2009-051C","EPOCH":"2024-10-09T08:20:39.758496","MEAN_MOTION":14.5948035,"ECCENTRICITY":0.0005404,"INCLINATION":98.4446,"RA_OF_ASC_NODE":169.6426,"ARG_OF_PERICENTER":354.7871,"MEAN_ANOMALY":5.3271,"EPHEMERIS_TYPE":0,"CLASSIFICATION_TYPE":"U","NORAD_CAT_ID":35933,"ELEMENT_SET_NO":999,"REV_AT_EPOCH":79927,"BSTAR":0.0013056,"MEAN_MOTION_DOT":6.151e-5,"MEAN_MOTION_DDOT":0},{"OBJECT_NAME":"ITUPSAT1","OBJECT_ID":"2009-051E","EPOCH":"2024-10-09T02:27:57.484224","MEAN_MOTION":14.58375405,"ECCENTRICITY":0.0007841,"INCLINATION":98.4544,"RA_OF_ASC_NODE":169.1139,"ARG_OF_PERICENTER":357.8761,"MEAN_ANOMALY":2.2403,"EPHEMERIS_TYPE":0,"CLASSIFICATION_TYPE":"U","NORAD_CAT_ID":35935,"ELEMENT_SET_NO":999,"REV_AT_EPOCH":79889,"BSTAR":0.0010357,"MEAN_MOTION_DOT":4.753e-5,"MEAN_MOTION_DDOT":0},{"OBJECT_NAME":"XIWANG-1 (HOPE-1)","OBJECT_ID":"2009-072B","EPOCH":"2024-10-09T11:49:52.249440","MEAN_MOTION":13.16409708,"ECCENTRICITY":0.0007188,"INCLINATION":100.3096,"RA_OF_ASC_NODE":238.8263,"ARG_OF_PERICENTER":197.0924,"MEAN_ANOMALY":162.9948,"EPHEMERIS_TYPE":0,"CLASSIFICATION_TYPE":"U","NORAD_CAT_ID":36122,"ELEMENT_SET_NO":999,"REV_AT_EPOCH":71199,"BSTAR":7.8627e-5,"MEAN_MOTION_DOT":-1.4e-7,"MEAN_MOTION_DDOT":0},{"OBJECT_NAME":"O/OREOS (USA 219)","OBJECT_ID":"2010-062C","EPOCH":"2024-10-09T13:38:53.718720","MEAN_MOTION":14.88710034,"ECCENTRICITY":0.001445,"INCLINATION":71.9742,"RA_OF_ASC_NODE":30.3192,"ARG_OF_PERICENTER":164.3035,"MEAN_ANOMALY":195.8584,"EPHEMERIS_TYPE":0,"CLASSIFICATION_TYPE":"U","NORAD_CAT_ID":37224,"ELEMENT_SET_NO":999,"REV_AT_EPOCH":2484,"BSTAR":0.0010315,"MEAN_MOTION_DOT":9.614e-5,"MEAN_MOTION_DDOT":0},{"OBJECT_NAME":"JUGNU","OBJECT_ID":"2011-058B","EPOCH":"2024-10-09T11:39:32.750208","MEAN_MOTION":14.13357431,"ECCENTRICITY":0.0018742,"INCLINATION":19.9603,"RA_OF_ASC_NODE":88.0619,"ARG_OF_PERICENTER":118.0449,"MEAN_ANOMALY":272.8876,"EPHEMERIS_TYPE":0,"CLASSIFICATION_TYPE":"U","NORAD_CAT_ID":37839,"ELEMENT_SET_NO":999,"REV_AT_EPOCH":67180,"BSTAR":0.00058558,"MEAN_MOTION_DOT":1.383e-5,"MEAN_MOTION_DDOT":0},{"OBJECT_NAME":"SRMSAT","OBJECT_ID":"2011-058D","EPOCH":"2024-10-09T02:17:48.670944","MEAN_MOTION":14.11234924,"ECCENTRICITY":0.0011638,"INCLINATION":19.9711,"RA_OF_ASC_NODE":187.7762,"ARG_OF_PERICENTER":266.6969,"MEAN_ANOMALY":121.4939,"EPHEMERIS_TYPE":0,"CLASSIFICATION_TYPE":"U","NORAD_CAT_ID":37841,"ELEMENT_SET_NO":999,"REV_AT_EPOCH":67067,"BSTAR":0.00039232,"MEAN_MOTION_DOT":9.83e-6,"MEAN_MOTION_DDOT":0},{"OBJECT_NAME":"STRAND-1","OBJECT_ID":"2013-009E","EPOCH":"2024-10-09T11:08:20.076864","MEAN_MOTION":14.36342814,"ECCENTRICITY":0.0007727,"INCLINATION":98.381,"RA_OF_ASC_NODE":108.6345,"ARG_OF_PERICENTER":272.0496,"MEAN_ANOMALY":87.9805,"EPHEMERIS_TYPE":0,"CLASSIFICATION_TYPE":"U","NORAD_CAT_ID":39090,"ELEMENT_SET_NO":999,"REV_AT_EPOCH":60864,"BSTAR":0.00072854,"MEAN_MOTION_DOT":2.09e-5,"MEAN_MOTION_DDOT":0},{"OBJECT_NAME":"ZACUBE-1 (TSHEPISOSAT)","OBJECT_ID":"2013-066B","EPOCH":"2024-10-09T09:36:07.281792","MEAN_MOTION":14.91582125,"ECCENTRICITY":0.00499,"INCLINATION":97.7468,"RA_OF_ASC_NODE":237.0343,"ARG_OF_PERICENTER":140.0761,"MEAN_ANOMALY":220.4144,"EPHEMERIS_TYPE":0,"CLASSIFICATION_TYPE":"U","NORAD_CAT_ID":39417,"ELEMENT_SET_NO":999,"REV_AT_EPOCH":58859,"BSTAR":0.0016885,"MEAN_MOTION_DOT":0.00017322,"MEAN_MOTION_DDOT":0},{"OBJECT_NAME":"GOMX-1","OBJECT_ID":"2013-066Q","EPOCH":"2024-10-09T13:07:13.920960","MEAN_MOTION":14.65400439,"ECCENTRICITY":0.013577,"INCLINATION":97.7121,"RA_OF_ASC_NODE":150.9831,"ARG_OF_PERICENTER":248.7944,"MEAN_ANOMALY":109.8712,"EPHEMERIS_TYPE":0,"CLASSIFICATION_TYPE":"U","NORAD_CAT_ID":39430,"ELEMENT_SET_NO":999,"REV_AT_EPOCH":57960,"BSTAR":0.0010854,"MEAN_MOTION_DOT":6.677e-5,"MEAN_MOTION_DDOT":0},{"OBJECT_NAME":"CUBEBUG-2 (LO-74)","OBJECT_ID":"2013-066AA","EPOCH":"2024-10-09T13:59:03.665184","MEAN_MOTION":14.85560138,"ECCENTRICITY":0.0064829,"INCLINATION":97.821,"RA_OF_ASC_NODE":224.9611,"ARG_OF_PERICENTER":259.5274,"MEAN_ANOMALY":99.8632,"EPHEMERIS_TYPE":0,"CLASSIFICATION_TYPE":"U","NORAD_CAT_ID":39440,"ELEMENT_SET_NO":999,"REV_AT_EPOCH":58530,"BSTAR":0.0013958,"MEAN_MOTION_DOT":0.00012493,"MEAN_MOTION_DDOT":0},{"OBJECT_NAME":"FUNCUBE-1 (AO-73)","OBJECT_ID":"2013-066AE","EPOCH":"2024-10-09T09:14:43.865952","MEAN_MOTION":14.95165403,"ECCENTRICITY":0.004793,"INCLINATION":97.7335,"RA_OF_ASC_NODE":240.4866,"ARG_OF_PERICENTER":118.7952,"MEAN_ANOMALY":241.8095,"EPHEMERIS_TYPE":0,"CLASSIFICATION_TYPE":"U","NORAD_CAT_ID":39444,"ELEMENT_SET_NO":999,"REV_AT_EPOCH":58715,"BSTAR":0.0021119,"MEAN_MOTION_DOT":0.00023732,"MEAN_MOTION_DDOT":0},{"OBJECT_NAME":"UWE-3","OBJECT_ID":"2013-066AG","EPOCH":"2024-10-09T13:51:00.060192","MEAN_MOTION":14.88331444,"ECCENTRICITY":0.0056933,"INCLINATION":97.7917,"RA_OF_ASC_NODE":231.0767,"ARG_OF_PERICENTER":201.0774,"MEAN_ANOMALY":158.8097,"EPHEMERIS_TYPE":0,"CLASSIFICATION_TYPE":"U","NORAD_CAT_ID":39446,"ELEMENT_SET_NO":999,"REV_AT_EPOCH":58570,"BSTAR":0.0011632,"MEAN_MOTION_DOT":0.00011046,"MEAN_MOTION_DDOT":0}]
