CUTE-1.7+APD II (CO-65) 
1 32785U 08021C   24283.19164077  .00015682  00000+0  12893-2 0  9996
2 32785  97.7703 247.8084 0007901 321.3268  38.7388 14.99207164892611
SEEDS II (CO-66)        
1 32791U 08021J   24282.91543950  .00032293  00000+0  20910-2 0  9999
2 32791  97.7041 253.8099 0001795 312.6538  47.4539 15.08073473893716
YUBILEINY (RS-30)       
1 32953U 08025A   24283.51474135  .00000059  00000+0  35098-3 0  9997
2 32953  82.5087  18.3677 0019311 212.6010 147.3879 12.43150043743335
KKS-1 (KISEKI)          
1 33499U 09002H   24283.53863979  .00006292  00000+0  84301-3 0  9995
2 33499  98.1254 186.4638 0009837 116.1748 244.0476 14.79737753845029
SWISSCUBE               
1 35932U 09051B   24283.59280085  .00005043  00000+0  10638-2 0  9994
2 35932  98.4517 169.1393 0006677 337.2559  22.8344 14.59852953799245
BEESAT-1                
1 35933U 09051C   24283.34768239  .00006151  00000+0  13056-2 0  9998
2 35933  98.4446 169.6426 0005404 354.7871   5.3271 14.59480350799273
ITUPSAT1                
1 35935U 09051E   24283.10274866  .00004753  00000+0  10357-2 0  9999
2 35935  98.4544 169.1139 0007841 357.8761   2.2403 14.58375405798892
XIWANG-1 (HOPE-1)       
1 36122U 09072B   24283.49296585 -.00000014  00000+0  78627-4 0  9998
2 36122 100.3096 238.8263 0007188 197.0924 162.9948 13.16409708711998
O/OREOS (USA 219)       
1 37224U 10062C   24283.56867730  .00009614  00000+0  10315-2 0  9999
2 37224  71.9742  30.3192 0014450 164.3035 195.8584 14.88710034 24848
JUGNU                   
1 37839U 11058B   24283.48579572  .00001383  00000+0  58558-3 0  9999
2 37839  19.9603  88.0619 0018742 118.0449 272.8876 14.13357431671805
SRMSAT                  
1 37841U 11058D   24283.09570221  .00000983  00000+0  39232-3 0  9994
2 37841  19.9711 187.7762 0011638 266.6969 121.4939 14.11234924670670
STRAND-1                
1 39090U 13009E   24283.46412126  .00002090  00000+0  72854-3 0  9998
2 39090  98.3810 108.6345 0007727 272.0496  87.9805 14.36342814608649
ZACUBE-1 (TSHEPISOSAT)  
1 39417U 13066B   24283.40008428  .00017322  00000+0  16885-2 0  9999
2 39417  97.7468 237.0343 0049900 140.0761 220.4144 14.91582125588590
GOMX-1                  
1 39430U 13066Q   24283.54668890  .00006677  00000+0  10854-2 0  9995
2 39430  97.7121 150.9831 0135770 248.7944 109.8712 14.65400439579607
CUBEBUG-2 (LO-74)       
1 39440U 13066AA  24283.58268131  .00012493  00000+0  13958-2 0  9995
2 39440  97.8210 224.9611 0064829 259.5274  99.8632 14.85560138585306
FUNCUBE-1 (AO-73)       
1 39444U 13066AE  24283.38522993  .00023732  00000+0  21119-2 0  9992
2 39444  97.7335 240.4866 0047930 118.7952 241.8095 14.95165403587159
UWE-3                   
1 39446U 13066AG  24283.57708403  .00011046  00000+0  11632-2 0  9991
2 39446  97.7917 231.0767 0056933 201.0774 158.8097 14.88331444585704
